GLOBALSTAR M024         
1 25883U 99043A   24324.87587965 -.00000057  00000+0  28354-3 0  9998
2 25883  51.9970 132.8992 0002658 104.7639  45.1498 11.10159890 91617
GLOBALSTAR M027         
1 25884U 99043B   24324.86913953 -.00000084  00000+0 -77741-3 0  9993
2 25884  52.0191 204.9685 0021915  15.6257 344.5209 11.04370823118113
GLOBALSTAR M054         
1 25885U 99043C   24324.62297604 -.00000060  00000+0  29214-3 0  9991
2 25885  52.0170   7.9838 0006294 178.3981 348.9452 11.39205876 95492
GLOBALSTAR M053         
1 25886U 99043D   24324.86996812 -.00000063  00000+0  16202-3 0  9991
2 25886  51.9991 302.8740 0003633  79.9301 309.0532 11.27660222 95839
GLOBALSTAR M058         
1 25907U 99049A   24324.88216058 -.00000016  00000+0  92005-3 0  9993
2 25907  51.9947 308.0713 0001504 232.4981 127.5717 11.93193015516556
GLOBALSTAR M050         
1 25908U 99049B   24324.35301453 -.00000044  00000+0  49382-3 0  9991
2 25908  52.0010 332.8367 0009126 335.0422  38.0755 12.07444624122842
GLOBALSTAR M033         
1 25909U 99049C   24324.74348788 -.00000092  00000+0 -18566-6 0  9994
2 25909  51.9904 218.0647 0012186 188.8065 171.2570 12.20292753510177
GLOBALSTAR M055         
1 25910U 99049D   24324.50069893 -.00000042  00000+0  44707-3 0  9994
2 25910  52.0014 239.7013 0007954  56.7193 303.4420 12.29414792142499
